[
    {
        "Altitude(m)": 703416.0130620021,
        "Argument of Periapsis(deg)": 0.0022780242373254137,
        "Eccentricity": 0.0,
        "Inclination(deg)": 45.0,
        "Latitude(deg)": 24.02826367951766,
        "Longitude(deg)": 76.19218277798811,
        "Mean Anomaly(deg)": 35.033943329496154,
        "RAAN(deg)": 149.99784961170838,
        "Satellite Name": "Constellation 1 662",
        "Satellite Number": 662,
        "Semi-Major Axis(m)": 7083131.272910544,
        "Time(s)": 38
    },
    {
        "Altitude(m)": 703420.5634494086,
        "Argument of Periapsis(deg)": 0.002337972243570819,
        "Eccentricity": 0.0,
        "Inclination(deg)": 45.0,
        "Latitude(deg)": 24.06694295890602,
        "Longitude(deg)": 76.23942778335656,
        "Mean Anomaly(deg)": 35.094644469746065,
        "RAAN(deg)": 149.9977930225428,
        "Satellite Name": "Constellation 1 662",
        "Satellite Number": 662,
        "Semi-Major Axis(m)": 7083131.272910544,
        "Time(s)": 39
    },
    {
        "Altitude(m)": 703425.1242616577,
        "Argument of Periapsis(deg)": 0.0023979202498162246,
        "Eccentricity": 0.0,
        "Inclination(deg)": 45.0,
        "Latitude(deg)": 24.10560481239615,
        "Longitude(deg)": 76.28670357805183,
        "Mean Anomaly(deg)": 35.155345609995955,
        "RAAN(deg)": 149.9977364333772,
        "Satellite Name": "Constellation 1 662",
        "Satellite Number": 662,
        "Semi-Major Axis(m)": 7083131.272910544,
        "Time(s)": 40
    },
    {
        "Altitude(m)": 703429.6954626162,
        "Argument of Periapsis(deg)": 0.00245786825606163,
        "Eccentricity": 0.0,
        "Inclination(deg)": 45.0,
        "Latitude(deg)": 24.144249198366897,
        "Longitude(deg)": 76.33401022247608,
        "Mean Anomaly(deg)": 35.216046750245866,
        "RAAN(deg)": 149.99767984421166,
        "Satellite Name": "Constellation 1 662",
        "Satellite Number": 662,
        "Semi-Major Axis(m)": 7083131.272910544,
        "Time(s)": 41
    },
    {
        "Altitude(m)": 703434.277016097,
        "Argument of Periapsis(deg)": 0.002517816262307036,
        "Eccentricity": 0.0,
        "Inclination(deg)": 45.0,
        "Latitude(deg)": 24.18287607513669,
        "Longitude(deg)": 76.38134777704343,
        "Mean Anomaly(deg)": 35.276747890495756,
        "RAAN(deg)": 149.99762325504608,
        "Satellite Name": "Constellation 1 662",
        "Satellite Number": 662,
        "Semi-Major Axis(m)": 7083131.272910544,
        "Time(s)": 42
    },
    {
        "Altitude(m)": 703438.8688858948,
        "Argument of Periapsis(deg)": 0.0025777642685524413,
        "Eccentricity": 0.0,
        "Inclination(deg)": 45.0,
        "Latitude(deg)": 24.22148540096337,
        "Longitude(deg)": 76.4287163021797,
        "Mean Anomaly(deg)": 35.33744903074566,
        "RAAN(deg)": 149.99756666588053,
        "Satellite Name": "Constellation 1 662",
        "Satellite Number": 662,
        "Semi-Major Axis(m)": 7083131.272910544,
        "Time(s)": 43
    },
    {
        "Altitude(m)": 703443.4710357551,
        "Argument of Periapsis(deg)": 0.002637712274797847,
        "Eccentricity": 0.0,
        "Inclination(deg)": 45.0,
        "Latitude(deg)": 24.260077134043954,
        "Longitude(deg)": 76.47611569022483,
        "Mean Anomaly(deg)": 35.39815017099555,
        "RAAN(deg)": 149.99751007671495,
        "Satellite Name": "Constellation 1 662",
        "Satellite Number": 662,
        "Semi-Major Axis(m)": 7083131.272910544,
        "Time(s)": 44
    },
    {
        "Altitude(m)": 703448.0834294077,
        "Argument of Periapsis(deg)": 0.0026976602810432526,
        "Eccentricity": 0.0,
        "Inclination(deg)": 45.0,
        "Latitude(deg)": 24.298651232515073,
        "Longitude(deg)": 76.52354633782164,
        "Mean Anomaly(deg)": 35.45885131124546,
        "RAAN(deg)": 149.9974534875494,
        "Satellite Name": "Constellation 1 662",
        "Satellite Number": 662,
        "Semi-Major Axis(m)": 7083131.272910544,
        "Time(s)": 45
    },
    {
        "Altitude(m)": 703452.7060305278,
        "Argument of Periapsis(deg)": 0.0027576082872886585,
        "Eccentricity": 0.0,
        "Inclination(deg)": 45.0,
        "Latitude(deg)": 24.337207654452104,
        "Longitude(deg)": 76.57100813733227,
        "Mean Anomaly(deg)": 35.51955245149537,
        "RAAN(deg)": 149.9973968983838,
        "Satellite Name": "Constellation 1 662",
        "Satellite Number": 662,
        "Semi-Major Axis(m)": 7083131.272910544,
        "Time(s)": 46
    },
    {
        "Altitude(m)": 703457.3388027741,
        "Argument of Periapsis(deg)": 0.0028175562935340644,
        "Eccentricity": 0.0,
        "Inclination(deg)": 45.0,
        "Latitude(deg)": 24.375746357869456,
        "Longitude(deg)": 76.61850114922652,
        "Mean Anomaly(deg)": 35.58025359174526,
        "RAAN(deg)": 149.99734030921823,
        "Satellite Name": "Constellation 1 662",
        "Satellite Number": 662,
        "Semi-Major Axis(m)": 7083131.272910544,
        "Time(s)": 47
    },
    {
        "Altitude(m)": 703461.9817097582,
        "Argument of Periapsis(deg)": 0.00287750429977947,
        "Eccentricity": 0.0,
        "Inclination(deg)": 45.0,
        "Latitude(deg)": 24.414267300720603,
        "Longitude(deg)": 76.66602543398498,
        "Mean Anomaly(deg)": 35.64095473199517,
        "RAAN(deg)": 149.99728372005268,
        "Satellite Name": "Constellation 1 662",
        "Satellite Number": 662,
        "Semi-Major Axis(m)": 7083131.272910544,
        "Time(s)": 48
    },
    {
        "Altitude(m)": 703466.6347150676,
        "Argument of Periapsis(deg)": 0.002937452306024875,
        "Eccentricity": 0.0,
        "Inclination(deg)": 45.0,
        "Latitude(deg)": 24.45277044089767,
        "Longitude(deg)": 76.71358105209819,
        "Mean Anomaly(deg)": 35.70165587224506,
        "RAAN(deg)": 149.9972271308871,
        "Satellite Name": "Constellation 1 662",
        "Satellite Number": 662,
        "Semi-Major Axis(m)": 7083131.272910544,
        "Time(s)": 49
    },
    {
        "Altitude(m)": 703471.2977822487,
        "Argument of Periapsis(deg)": 0.0029974003122702807,
        "Eccentricity": 0.0,
        "Inclination(deg)": 45.0,
        "Latitude(deg)": 24.491255736231537,
        "Longitude(deg)": 76.76116806406647,
        "Mean Anomaly(deg)": 35.762357012494945,
        "RAAN(deg)": 149.99717054172154,
        "Satellite Name": "Constellation 1 662",
        "Satellite Number": 662,
        "Semi-Major Axis(m)": 7083131.272910544,
        "Time(s)": 50
    },
    {
        "Altitude(m)": 703475.9708748233,
        "Argument of Periapsis(deg)": 0.0030573483185156866,
        "Eccentricity": 0.0,
        "Inclination(deg)": 45.0,
        "Latitude(deg)": 24.529723144491673,
        "Longitude(deg)": 76.80878653040008,
        "Mean Anomaly(deg)": 35.82305815274483,
        "RAAN(deg)": 149.99711395255596,
        "Satellite Name": "Constellation 1 662",
        "Satellite Number": 662,
        "Semi-Major Axis(m)": 7083131.272910544,
        "Time(s)": 51
    },
    {
        "Altitude(m)": 703480.6539562653,
        "Argument of Periapsis(deg)": 0.003117296324761092,
        "Eccentricity": 0.0,
        "Inclination(deg)": 45.0,
        "Latitude(deg)": 24.568172623385895,
        "Longitude(deg)": 76.85643634352127,
        "Mean Anomaly(deg)": 35.88375929299477,
        "RAAN(deg)": 149.99705736339038,
        "Satellite Name": "Constellation 1 662",
        "Satellite Number": 662,
        "Semi-Major Axis(m)": 7083131.272910544,
        "Time(s)": 52
    },
    {
        "Altitude(m)": 703485.3469900362,
        "Argument of Periapsis(deg)": 0.0031772443310064975,
        "Eccentricity": 0.0,
        "Inclination(deg)": 45.0,
        "Latitude(deg)": 24.606604130560648,
        "Longitude(deg)": 76.9041179001529,
        "Mean Anomaly(deg)": 35.94446043324463,
        "RAAN(deg)": 149.99700077422483,
        "Satellite Name": "Constellation 1 662",
        "Satellite Number": 662,
        "Semi-Major Axis(m)": 7083131.272910544,
        "Time(s)": 53
    },
    {
        "Altitude(m)": 703490.0499395473,
        "Argument of Periapsis(deg)": 0.0032371923372519038,
        "Eccentricity": 0.0,
        "Inclination(deg)": 45.0,
        "Latitude(deg)": 24.64501762360046,
        "Longitude(deg)": 76.95183109273528,
        "Mean Anomaly(deg)": 36.00516157349454,
        "RAAN(deg)": 149.99694418505925,
        "Satellite Name": "Constellation 1 662",
        "Satellite Number": 662,
        "Semi-Major Axis(m)": 7083131.272910544,
        "Time(s)": 54
    },
    {
        "Altitude(m)": 703494.7627681853,
        "Argument of Periapsis(deg)": 0.0032971403434973088,
        "Eccentricity": 0.0,
        "Inclination(deg)": 45.0,
        "Latitude(deg)": 24.683413060028006,
        "Longitude(deg)": 76.99957598181436,
        "Mean Anomaly(deg)": 36.06586271374446,
        "RAAN(deg)": 149.9968875958937,
        "Satellite Name": "Constellation 1 662",
        "Satellite Number": 662,
        "Semi-Major Axis(m)": 7083131.272910544,
        "Time(s)": 55
    },
    {
        "Altitude(m)": 703499.4854393058,
        "Argument of Periapsis(deg)": 0.0033570883497427146,
        "Eccentricity": 0.0,
        "Inclination(deg)": 45.0,
        "Latitude(deg)": 24.72179039730409,
        "Longitude(deg)": 77.0473526279444,
        "Mean Anomaly(deg)": 36.12656385399434,
        "RAAN(deg)": 149.99683100672812,
        "Satellite Name": "Constellation 1 662",
        "Satellite Number": 662,
        "Semi-Major Axis(m)": 7083131.272910544,
        "Time(s)": 56
    }
]